STARLINK-31965          
1 59888U 24100D   26068.22480687  .00021542  00000+0  78939-3 0  9996
2 59888  43.0016 128.2074 0001819 279.5960  80.4686 15.27607133100980
TROLL                   
1 62658U 25009BB  26068.22522958  .00013174  00000+0  48220-3 0  9994
2 62658  97.3932 150.7169 0001816  59.1850 300.9568 15.28164315118170
